{
  "type": "FeatureCollection",
  "features": [
    {
      "type": "Feature",
      "properties": {
        "norad_id": 66872,
        "name": "STARLINK-36082",
        "group": "last-30-days",
        "lat": -41.74531023215657,
        "lon": 45.38435014776174,
        "alt_km": 303.9439250729374,
        "timestamp": "2025-12-13T07:35:40.338674+00:00",
        "meta_object_name": "STARLINK-36082",
        "meta_object_id": "2025-281AA",
        "meta_epoch": "2025-12-12T20:00:01.999872",
        "meta_mean_motion": 15.91476396,
        "meta_eccentricity": 0.00016725,
        "meta_inclination": 43.0011,
        "meta_ra_of_asc_node": 121.6482,
        "meta_arg_of_pericenter": 282.5332,
        "meta_mean_anomaly": 109.9163,
        "meta_ephemeris_type": 0,
        "meta_classification_type": "U",
        "meta_norad_cat_id": 66872,
        "meta_element_set_no": 999,
        "meta_rev_at_epoch": 132,
        "meta_bstar": -0.0043064825,
        "meta_mean_motion_dot": -0.01437798,
        "meta_mean_motion_ddot": 0.00058416382,
        "tle_line1": "1 66872U 25281AA  25346.83335648 -.01437798  58416-3 -43065-2 0  9995",
        "tle_line2": "2 66872  43.0011 121.6482 0001672 282.5332 109.9163 15.91476396  1321"
      },
      "geometry": {
        "type": "Point",
        "coordinates": [
          45.38435014776174,
          -41.74531023215657
        ]
      }
    },
    {
      "type": "Feature",
      "properties": {
        "norad_id": 66873,
        "name": "STARLINK-36128",
        "group": "last-30-days",
        "lat": -39.4714152323136,
        "lon": 56.530481182879214,
        "alt_km": 303.57766119353255,
        "timestamp": "2025-12-13T07:35:40.338685+00:00",
        "meta_object_name": "STARLINK-36128",
        "meta_object_id": "2025-281AB",
        "meta_epoch": "2025-12-12T20:00:01.999872",
        "meta_mean_motion": 15.91579031,
        "meta_eccentricity": 0.00017612,
        "meta_inclination": 43.0007,
        "meta_ra_of_asc_node": 121.6264,
        "meta_arg_of_pericenter": 281.0251,
        "meta_mean_anomaly": 120.0511,
        "meta_ephemeris_type": 0,
        "meta_classification_type": "U",
        "meta_norad_cat_id": 66873,
        "meta_element_set_no": 999,
        "meta_rev_at_epoch": 145,
        "meta_bstar": -0.0043775986,
        "meta_mean_motion_dot": -0.01468977,
        "meta_mean_motion_ddot": 0.00060820718,
        "tle_line1": "1 66873U 25281AB  25346.83335648 -.01468977  60821-3 -43776-2 0  9991",
        "tle_line2": "2 66873  43.0007 121.6264 0001761 281.0251 120.0511 15.91579031  1453"
      },
      "geometry": {
        "type": "Point",
        "coordinates": [
          56.530481182879214,
          -39.4714152323136
        ]
      }
    },
    {
      "type": "Feature",
      "properties": {
        "norad_id": 66874,
        "name": "STARLINK-36129",
        "group": "last-30-days",
        "lat": -41.0060110727702,
        "lon": 49.72415969621808,
        "alt_km": 303.8801792529657,
        "timestamp": "2025-12-13T07:35:40.338696+00:00",
        "meta_object_name": "STARLINK-36129",
        "meta_object_id": "2025-281AC",
        "meta_epoch": "2025-12-12T20:00:01.999872",
        "meta_mean_motion": 15.91507856,
        "meta_eccentricity": 0.00016298,
        "meta_inclination": 43.001,
        "meta_ra_of_asc_node": 121.6401,
        "meta_arg_of_pericenter": 284.7132,
        "meta_mean_anomaly": 111.0403,
        "meta_ephemeris_type": 0,
        "meta_classification_type": "U",
        "meta_norad_cat_id": 66874,
        "meta_element_set_no": 999,
        "meta_rev_at_epoch": 145,
        "meta_bstar": -0.0043327249,
        "meta_mean_motion_dot": -0.01448777,
        "meta_mean_motion_ddot": 0.00059254857,
        "tle_line1": "1 66874U 25281AC  25346.83335648 -.01448777  59255-3 -43327-2 0  9999",
        "tle_line2": "2 66874  43.0010 121.6401 0001629 284.7132 111.0403 15.91507856  1458"
      },
      "geometry": {
        "type": "Point",
        "coordinates": [
          49.72415969621808,
          -41.0060110727702
        ]
      }
    },
    {
      "type": "Feature",
      "properties": {
        "norad_id": 66875,
        "name": "STARLINK-36053",
        "group": "last-30-days",
        "lat": -38.47605455226217,
        "lon": 60.09209604314901,
        "alt_km": 303.513668274456,
        "timestamp": "2025-12-13T07:35:40.338705+00:00",
        "meta_object_name": "STARLINK-36053",
        "meta_object_id": "2025-281AD",
        "meta_epoch": "2025-12-12T20:00:01.999872",
        "meta_mean_motion": 15.91608431,
        "meta_eccentricity": 0.00016622,
        "meta_inclination": 43.0009,
        "meta_ra_of_asc_node": 121.6185,
        "meta_arg_of_pericenter": 282.6232,
        "meta_mean_anomaly": 121.3514,
        "meta_ephemeris_type": 0,
        "meta_classification_type": "U",
        "meta_norad_cat_id": 66875,
        "meta_element_set_no": 999,
        "meta_rev_at_epoch": 145,
        "meta_bstar": -0.0043620989,
        "meta_mean_motion_dot": -0.01466018,
        "meta_mean_motion_ddot": 0.00060613255,
        "tle_line1": "1 66875U 25281AD  25346.83335648 -.01466018  60613-3 -43621-2 0  9995",
        "tle_line2": "2 66875  43.0009 121.6185 0001662 282.6232 121.3514 15.91608431  1459"
      },
      "geometry": {
        "type": "Point",
        "coordinates": [
          60.09209604314901,
          -38.47605455226217
        ]
      }
    },
    {
      "type": "Feature",
      "properties": {
        "norad_id": 66876,
        "name": "STARLINK-35702",
        "group": "last-30-days",
        "lat": -40.10789120510734,
        "lon": 53.95552703820402,
        "alt_km": 303.6533250745688,
        "timestamp": "2025-12-13T07:35:40.338714+00:00",
        "meta_object_name": "STARLINK-35702",
        "meta_object_id": "2025-281AE",
        "meta_epoch": "2025-12-12T20:00:01.999872",
        "meta_mean_motion": 15.91534716,
        "meta_eccentricity": 0.00017853,
        "meta_inclination": 43.0012,
        "meta_ra_of_asc_node": 121.6318,
        "meta_arg_of_pericenter": 282.72,
        "meta_mean_anomaly": 116.332,
        "meta_ephemeris_type": 0,
        "meta_classification_type": "U",
        "meta_norad_cat_id": 66876,
        "meta_element_set_no": 999,
        "meta_rev_at_epoch": 145,
        "meta_bstar": -0.0043220668,
        "meta_mean_motion_dot": -0.01447278,
        "meta_mean_motion_ddot": 0.00059157727,
        "tle_line1": "1 66876U 25281AE  25346.83335648 -.01447278  59158-3 -43221-2 0  9991",
        "tle_line2": "2 66876  43.0012 121.6318 0001785 282.7200 116.3320 15.91534716  1457"
      },
      "geometry": {
        "type": "Point",
        "coordinates": [
          53.95552703820402,
          -40.10789120510734
        ]
      }
    },
    {
      "type": "Feature",
      "properties": {
        "norad_id": 66877,
        "name": "ZQ-3 R/B",
        "group": "last-30-days",
        "lat": 55.17426418422107,
        "lon": 166.10950390475392,
        "alt_km": 919.0635441998102,
        "timestamp": "2025-12-13T07:35:40.338723+00:00",
        "meta_object_name": "ZQ-3 R/B",
        "meta_object_id": "2025-282A",
        "meta_epoch": "2025-12-12T12:59:05.830944",
        "meta_mean_motion": 14.58437511,
        "meta_eccentricity": 0.07834735,
        "meta_inclination": 56.9522,
        "meta_ra_of_asc_node": 58.4389,
        "meta_arg_of_pericenter": 219.6051,
        "meta_mean_anomaly": 134.5165,
        "meta_ephemeris_type": 0,
        "meta_classification_type": "U",
        "meta_norad_cat_id": 66877,
        "meta_element_set_no": 999,
        "meta_rev_at_epoch": 136,
        "meta_bstar": 0.00027505499,
        "meta_mean_motion_dot": 0.01370702,
        "meta_mean_motion_ddot": 7.4503e-06,
        "tle_line1": "1 66877U 25282A   25346.54103971  .01370702  74503-5  27505-3 0  9999",
        "tle_line2": "2 66877  56.9522  58.4389 0783473 219.6051 134.5165 14.58437511  1362"
      },
      "geometry": {
        "type": "Point",
        "coordinates": [
          166.10950390475392,
          55.17426418422107
        ]
      }
    },
    {
      "type": "Feature",
      "properties": {
        "norad_id": 66906,
        "name": "1998-067XS",
        "group": "last-30-days",
        "lat": 30.036799340287967,
        "lon": 166.82332387633312,
        "alt_km": 413.4977150691129,
        "timestamp": "2025-12-13T07:35:40.338732+00:00",
        "meta_object_name": "1998-067XS",
        "meta_object_id": "1998-067XS",
        "meta_epoch": "2025-12-12T17:30:10.785600",
        "meta_mean_motion": 15.50562979,
        "meta_eccentricity": 0.00036025,
        "meta_inclination": 51.6293,
        "meta_ra_of_asc_node": 142.4703,
        "meta_arg_of_pericenter": 202.1444,
        "meta_mean_anomaly": 157.939,
        "meta_ephemeris_type": 0,
        "meta_classification_type": "U",
        "meta_norad_cat_id": 66906,
        "meta_element_set_no": 999,
        "meta_rev_at_epoch": 161,
        "meta_bstar": 0.00063717141,
        "meta_mean_motion_dot": 0.00036816,
        "meta_mean_motion_ddot": 0,
        "tle_line1": "1 66906U 98067XS  25346.72929150  .00036816  00000+0  63717-3 0  9992",
        "tle_line2": "2 66906  51.6293 142.4703 0003602 202.1444 157.9390 15.50562979  1615"
      },
      "geometry": {
        "type": "Point",
        "coordinates": [
          166.82332387633312,
          30.036799340287967
        ]
      }
    }
  ]
}